STARLINK-35788          
1 66831U 25280L   25353.91668981  .00100626  00000+0  16203-2 0  9995
2 66831  69.9991 178.7369 0003085 268.1882 258.9624 15.52476009  4055
STARLINK-35768          
1 66832U 25280M   25353.91668981  .00087228  00000+0  14073-2 0  9991
2 66832  69.9994 178.7336 0003098 269.9216 259.1589 15.52474632  4050
STARLINK-35858          
1 66833U 25280N   25353.91668981  .00090781  00000+0  14638-2 0  9997
2 66833  69.9992 178.7326 0003132 271.8158 259.1701 15.52475710  4058
STARLINK-35840          
1 66834U 25280P   25353.91668981  .00091540  00000+0  14761-2 0  9999
2 66834  69.9996 178.7298 0003093 269.4911 263.4077 15.52472014  4055
STARLINK-35890          
1 66835U 25280Q   25353.91668981  .00090892  00000+0  14658-2 0  9994
2 66835  69.9995 178.7274 0002934 270.0451 264.7808 15.52472839  4050
STARLINK-35838          
1 66836U 25280R   25353.91668981  .00090665  00000+0  14621-2 0  9993
2 66836  69.9994 178.7248 0003001 270.1389 266.5928 15.52473231  4058
STARLINK-35729          
1 66837U 25280S   25353.91668981  .00086900  00000+0  14022-2 0  9996
2 66837  69.9996 178.7215 0003436 273.6071 265.0595 15.52472908  4057
STARLINK-35886          
1 66838U 25280T   25353.91668981  .00096241  00000+0  15507-2 0  9995
2 66838  69.9993 178.7169 0002928 271.2962 271.1849 15.52475078  4052
STARLINK-35717          
1 66839U 25280U   25353.91668981  .00097278  00000+0  15673-2 0  9991
2 66839  69.9992 178.7190 0003035 269.2891 271.2749 15.52473306  4056
STARLINK-35837          
1 66840U 25280V   25353.91668981  .00097385  00000+0  15689-2 0  9999
2 66840  69.9994 178.7149 0002898 270.9341 273.4611 15.52474347  4057
STARLINK-35715          
1 66841U 25280W   25353.91668981  .00096639  00000+0  15571-2 0  9991
2 66841  69.9994 178.7127 0002977 269.4437 276.8684 15.52473845  4050
STARLINK-35769          
1 66842U 25280X   25353.91668981  .00097756  00000+0  15746-2 0  9997
2 66842  69.9994 178.7097 0003052 271.6627 276.5701 15.52477579  4053
