CCSDS_OMM_VERS = 2.0
CREATION_DATE  = 
ORIGINATOR     = 

OBJECT_NAME    = STARLINK-35788
OBJECT_ID      = 2025-280L
CENTER_NAME    = EARTH
REF_FRAME      = TEME
TIME_SYSTEM    = UTC
MEAN_ELEMENT_THEORY = SGP/SGP4

EPOCH          = 2025-12-19T22:00:01.999584
MEAN_MOTION    = 15.52476009
ECCENTRICITY   = .00030851
INCLINATION    = 69.9991
RA_OF_ASC_NODE = 178.7369
ARG_OF_PERICENTER = 268.1882
MEAN_ANOMALY   = 258.9624

EPHEMERIS_TYPE = 0
CLASSIFICATION_TYPE = U
NORAD_CAT_ID   = 66831
ELEMENT_SET_NO = 999
REV_AT_EPOCH   = 405
BSTAR          = .1620265E-2
MEAN_MOTION_DOT = .100626E-2
MEAN_MOTION_DDOT = 0

CCSDS_OMM_VERS = 2.0
CREATION_DATE  = 
ORIGINATOR     = 

OBJECT_NAME    = STARLINK-35768
OBJECT_ID      = 2025-280M
CENTER_NAME    = EARTH
REF_FRAME      = TEME
TIME_SYSTEM    = UTC
MEAN_ELEMENT_THEORY = SGP/SGP4

EPOCH          = 2025-12-19T22:00:01.999584
MEAN_MOTION    = 15.52474632
ECCENTRICITY   = .00030986
INCLINATION    = 69.9994
RA_OF_ASC_NODE = 178.7336
ARG_OF_PERICENTER = 269.9216
MEAN_ANOMALY   = 259.1589

EPHEMERIS_TYPE = 0
CLASSIFICATION_TYPE = U
NORAD_CAT_ID   = 66832
ELEMENT_SET_NO = 999
REV_AT_EPOCH   = 405
BSTAR          = .14073478E-2
MEAN_MOTION_DOT = .87228E-3
MEAN_MOTION_DDOT = 0

CCSDS_OMM_VERS = 2.0
CREATION_DATE  = 
ORIGINATOR     = 

OBJECT_NAME    = STARLINK-35858
OBJECT_ID      = 2025-280N
CENTER_NAME    = EARTH
REF_FRAME      = TEME
TIME_SYSTEM    = UTC
MEAN_ELEMENT_THEORY = SGP/SGP4

EPOCH          = 2025-12-19T22:00:01.999584
MEAN_MOTION    = 15.52475710
ECCENTRICITY   = .00031326
INCLINATION    = 69.9992
RA_OF_ASC_NODE = 178.7326
ARG_OF_PERICENTER = 271.8158
MEAN_ANOMALY   = 259.1701

EPHEMERIS_TYPE = 0
CLASSIFICATION_TYPE = U
NORAD_CAT_ID   = 66833
ELEMENT_SET_NO = 999
REV_AT_EPOCH   = 405
BSTAR          = .146384E-2
MEAN_MOTION_DOT = .90781E-3
MEAN_MOTION_DDOT = 0

CCSDS_OMM_VERS = 2.0
CREATION_DATE  = 
ORIGINATOR     = 

OBJECT_NAME    = STARLINK-35840
OBJECT_ID      = 2025-280P
CENTER_NAME    = EARTH
REF_FRAME      = TEME
TIME_SYSTEM    = UTC
MEAN_ELEMENT_THEORY = SGP/SGP4

EPOCH          = 2025-12-19T22:00:01.999584
MEAN_MOTION    = 15.52472014
ECCENTRICITY   = .00030934
INCLINATION    = 69.9996
RA_OF_ASC_NODE = 178.7298
ARG_OF_PERICENTER = 269.4911
MEAN_ANOMALY   = 263.4077

EPHEMERIS_TYPE = 0
CLASSIFICATION_TYPE = U
NORAD_CAT_ID   = 66834
ELEMENT_SET_NO = 999
REV_AT_EPOCH   = 405
BSTAR          = .1476122E-2
MEAN_MOTION_DOT = .9154E-3
MEAN_MOTION_DDOT = 0

CCSDS_OMM_VERS = 2.0
CREATION_DATE  = 
ORIGINATOR     = 

OBJECT_NAME    = STARLINK-35890
OBJECT_ID      = 2025-280Q
CENTER_NAME    = EARTH
REF_FRAME      = TEME
TIME_SYSTEM    = UTC
MEAN_ELEMENT_THEORY = SGP/SGP4

EPOCH          = 2025-12-19T22:00:01.999584
MEAN_MOTION    = 15.52472839
ECCENTRICITY   = .00029345
INCLINATION    = 69.9995
RA_OF_ASC_NODE = 178.7274
ARG_OF_PERICENTER = 270.0451
MEAN_ANOMALY   = 264.7808

EPHEMERIS_TYPE = 0
CLASSIFICATION_TYPE = U
NORAD_CAT_ID   = 66835
ELEMENT_SET_NO = 999
REV_AT_EPOCH   = 405
BSTAR          = .14657778E-2
MEAN_MOTION_DOT = .90892E-3
MEAN_MOTION_DDOT = 0

CCSDS_OMM_VERS = 2.0
CREATION_DATE  = 
ORIGINATOR     = 

OBJECT_NAME    = STARLINK-35838
OBJECT_ID      = 2025-280R
CENTER_NAME    = EARTH
REF_FRAME      = TEME
TIME_SYSTEM    = UTC
MEAN_ELEMENT_THEORY = SGP/SGP4

EPOCH          = 2025-12-19T22:00:01.999584
MEAN_MOTION    = 15.52473231
ECCENTRICITY   = .00030019
INCLINATION    = 69.9994
RA_OF_ASC_NODE = 178.7248
ARG_OF_PERICENTER = 270.1389
MEAN_ANOMALY   = 266.5928

EPHEMERIS_TYPE = 0
CLASSIFICATION_TYPE = U
NORAD_CAT_ID   = 66836
ELEMENT_SET_NO = 999
REV_AT_EPOCH   = 405
BSTAR          = .14621356E-2
MEAN_MOTION_DOT = .90665E-3
MEAN_MOTION_DDOT = 0

CCSDS_OMM_VERS = 2.0
CREATION_DATE  = 
ORIGINATOR     = 

OBJECT_NAME    = STARLINK-35729
OBJECT_ID      = 2025-280S
CENTER_NAME    = EARTH
REF_FRAME      = TEME
TIME_SYSTEM    = UTC
MEAN_ELEMENT_THEORY = SGP/SGP4

EPOCH          = 2025-12-19T22:00:01.999584
MEAN_MOTION    = 15.52472908
ECCENTRICITY   = .00034365
INCLINATION    = 69.9996
RA_OF_ASC_NODE = 178.7215
ARG_OF_PERICENTER = 273.6071
MEAN_ANOMALY   = 265.0595

EPHEMERIS_TYPE = 0
CLASSIFICATION_TYPE = U
NORAD_CAT_ID   = 66837
ELEMENT_SET_NO = 999
REV_AT_EPOCH   = 405
BSTAR          = .14021558E-2
MEAN_MOTION_DOT = .869E-3
MEAN_MOTION_DDOT = 0

CCSDS_OMM_VERS = 2.0
CREATION_DATE  = 
ORIGINATOR     = 

OBJECT_NAME    = STARLINK-35886
OBJECT_ID      = 2025-280T
CENTER_NAME    = EARTH
REF_FRAME      = TEME
TIME_SYSTEM    = UTC
MEAN_ELEMENT_THEORY = SGP/SGP4

EPOCH          = 2025-12-19T22:00:01.999584
MEAN_MOTION    = 15.52475078
ECCENTRICITY   = .00029284
INCLINATION    = 69.9993
RA_OF_ASC_NODE = 178.7169
ARG_OF_PERICENTER = 271.2962
MEAN_ANOMALY   = 271.1849

EPHEMERIS_TYPE = 0
CLASSIFICATION_TYPE = U
NORAD_CAT_ID   = 66838
ELEMENT_SET_NO = 999
REV_AT_EPOCH   = 405
BSTAR          = .15507136E-2
MEAN_MOTION_DOT = .96241E-3
MEAN_MOTION_DDOT = 0

CCSDS_OMM_VERS = 2.0
CREATION_DATE  = 
ORIGINATOR     = 

OBJECT_NAME    = STARLINK-35717
OBJECT_ID      = 2025-280U
CENTER_NAME    = EARTH
REF_FRAME      = TEME
TIME_SYSTEM    = UTC
MEAN_ELEMENT_THEORY = SGP/SGP4

EPOCH          = 2025-12-19T22:00:01.999584
MEAN_MOTION    = 15.52473306
ECCENTRICITY   = .00030355
INCLINATION    = 69.9992
RA_OF_ASC_NODE = 178.7190
ARG_OF_PERICENTER = 269.2891
MEAN_ANOMALY   = 271.2749

EPHEMERIS_TYPE = 0
CLASSIFICATION_TYPE = U
NORAD_CAT_ID   = 66839
ELEMENT_SET_NO = 999
REV_AT_EPOCH   = 405
BSTAR          = .1567271E-2
MEAN_MOTION_DOT = .97278E-3
MEAN_MOTION_DDOT = 0

CCSDS_OMM_VERS = 2.0
CREATION_DATE  = 
ORIGINATOR     = 

OBJECT_NAME    = STARLINK-35837
OBJECT_ID      = 2025-280V
CENTER_NAME    = EARTH
REF_FRAME      = TEME
TIME_SYSTEM    = UTC
MEAN_ELEMENT_THEORY = SGP/SGP4

EPOCH          = 2025-12-19T22:00:01.999584
MEAN_MOTION    = 15.52474347
ECCENTRICITY   = .00028986
INCLINATION    = 69.9994
RA_OF_ASC_NODE = 178.7149
ARG_OF_PERICENTER = 270.9341
MEAN_ANOMALY   = 273.4611

EPHEMERIS_TYPE = 0
CLASSIFICATION_TYPE = U
NORAD_CAT_ID   = 66840
ELEMENT_SET_NO = 999
REV_AT_EPOCH   = 405
BSTAR          = .15689404E-2
MEAN_MOTION_DOT = .97385E-3
MEAN_MOTION_DDOT = 0

CCSDS_OMM_VERS = 2.0
CREATION_DATE  = 
ORIGINATOR     = 

OBJECT_NAME    = STARLINK-35715
OBJECT_ID      = 2025-280W
CENTER_NAME    = EARTH
REF_FRAME      = TEME
TIME_SYSTEM    = UTC
MEAN_ELEMENT_THEORY = SGP/SGP4

EPOCH          = 2025-12-19T22:00:01.999584
MEAN_MOTION    = 15.52473845
ECCENTRICITY   = .00029778
INCLINATION    = 69.9994
RA_OF_ASC_NODE = 178.7127
ARG_OF_PERICENTER = 269.4437
MEAN_ANOMALY   = 276.8684

EPHEMERIS_TYPE = 0
CLASSIFICATION_TYPE = U
NORAD_CAT_ID   = 66841
ELEMENT_SET_NO = 999
REV_AT_EPOCH   = 405
BSTAR          = .15570931E-2
MEAN_MOTION_DOT = .96639E-3
MEAN_MOTION_DDOT = 0

CCSDS_OMM_VERS = 2.0
CREATION_DATE  = 
ORIGINATOR     = 

OBJECT_NAME    = STARLINK-35769
OBJECT_ID      = 2025-280X
CENTER_NAME    = EARTH
REF_FRAME      = TEME
TIME_SYSTEM    = UTC
MEAN_ELEMENT_THEORY = SGP/SGP4

EPOCH          = 2025-12-19T22:00:01.999584
MEAN_MOTION    = 15.52477579
ECCENTRICITY   = .00030529
INCLINATION    = 69.9994
RA_OF_ASC_NODE = 178.7097
ARG_OF_PERICENTER = 271.6627
MEAN_ANOMALY   = 276.5701

EPHEMERIS_TYPE = 0
CLASSIFICATION_TYPE = U
NORAD_CAT_ID   = 66842
ELEMENT_SET_NO = 999
REV_AT_EPOCH   = 405
BSTAR          = .1574615E-2
MEAN_MOTION_DOT = .97756E-3
MEAN_MOTION_DDOT = 0

